start=new Date('2023-06-19T00:00:00.000Z').valueOf();
sats=[{"TIME_SYSTEM":"UTC","APOAPSIS":"547.793","OBJECT_NAME":"STARLINK-1019","MEAN_MOTION_DDOT":"0.0000000000000","ELEMENT_SET_NO":"999","PERIAPSIS":"546.844","LAUNCH_DATE":"2019-11-11","ECCENTRICITY":"0.00006850","MEAN_ELEMENT_THEORY":"SGP4","SEMIMAJOR_AXIS":"6925.453","COUNTRY_CODE":"US","RA_OF_ASC_NODE":"332.8218","OBJECT_TYPE":"PAYLOAD","MEAN_ANOMALY":"296.2386","CENTER_NAME":"EARTH","REF_FRAME":"TEME","TLE_LINE2":"2 44724  53.0551 332.8218 0000685  63.8674 296.2386 15.06365814198960","ARG_OF_PERICENTER":"63.8674","INCLINATION":"53.0551","MEAN_MOTION_DOT":"0.00015994","MEAN_MOTION":"15.06365814","FILE":"3936547","RCS_SIZE":"LARGE","OBJECT_ID":"2019-074M","EPHEMERIS_TYPE":"0","BSTAR":"0.00109120000000","TLE_LINE1":"1 44724U 19074M   23169.80727153  .00015994  00000-0  10912-2 0  9999","PERIOD":"95.594","REV_AT_EPOCH":"19896","DECAY_DATE":null,"CLASSIFICATION_TYPE":"U","EPOCH":"2023-06-18T19:22:28.260192","GP_ID":"234218745","NORAD_CAT_ID":"44724","SITE":"AFETR"},{"COUNTRY_CODE":"US","OBJECT_TYPE":"PAYLOAD","MEAN_ANOMALY":"288.6865","RA_OF_ASC_NODE":"352.7904","CENTER_NAME":"EARTH","REF_FRAME":"TEME","ARG_OF_PERICENTER":"71.4188","TLE_LINE2":"2 44725  53.0548 352.7904 0000588  71.4188 288.6865 15.06374463198683","INCLINATION":"53.0548","MEAN_MOTION_DOT":"-0.00006786","MEAN_MOTION":"15.06374463","FILE":"3936547","RCS_SIZE":"LARGE","OBJECT_ID":"2019-074N","EPHEMERIS_TYPE":"0","BSTAR":"-0.00043742000000","TLE_LINE1":"1 44725U 19074N   23169.81280181 -.00006786  00000-0 -43742-3 0  9995","PERIOD":"95.594","REV_AT_EPOCH":"19868","DECAY_DATE":null,"CLASSIFICATION_TYPE":"U","GP_ID":"234218687","EPOCH":"2023-06-18T19:30:26.076384","NORAD_CAT_ID":"44725","SITE":"AFETR","TIME_SYSTEM":"UTC","APOAPSIS":"547.699","OBJECT_NAME":"STARLINK-1020","MEAN_MOTION_DDOT":"0.0000000000000","ELEMENT_SET_NO":"999","PERIAPSIS":"546.885","LAUNCH_DATE":"2019-11-11","ECCENTRICITY":"0.00005880","MEAN_ELEMENT_THEORY":"SGP4","SEMIMAJOR_AXIS":"6925.427"},{"OBJECT_NAME":"STARLINK-1021","MEAN_MOTION_DDOT":"0.0000000000000","ELEMENT_SET_NO":"999","APOAPSIS":"548.034","TIME_SYSTEM":"UTC","MEAN_ELEMENT_THEORY":"SGP4","SEMIMAJOR_AXIS":"6925.367","ECCENTRICITY":"0.00011580","LAUNCH_DATE":"2019-11-11","PERIAPSIS":"546.430","RCS_SIZE":"LARGE","FILE":"3936745","OBJECT_ID":"2019-074P","EPHEMERIS_TYPE":"0","MEAN_MOTION_DOT":"0.00000473","MEAN_MOTION":"15.06393852","ARG_OF_PERICENTER":"91.3717","TLE_LINE2":"2 44726  53.0557 333.1304 0001158  91.3717 268.7404 15.06393852198786","INCLINATION":"53.0557","OBJECT_TYPE":"PAYLOAD","MEAN_ANOMALY":"268.7404","RA_OF_ASC_NODE":"333.1304","COUNTRY_CODE":"US","REF_FRAME":"TEME","CENTER_NAME":"EARTH","SITE":"AFETR","NORAD_CAT_ID":"44726","GP_ID":"234241614","EPOCH":"2023-06-18T17:41:37.218912","REV_AT_EPOCH":"19878","DECAY_DATE":null,"CLASSIFICATION_TYPE":"U","TLE_LINE1":"1 44726U 19074P   23169.73723633  .00000473  00000-0  50644-4 0  9996","BSTAR":"0.00005064400000","PERIOD":"95.593"},{"ECCENTRICITY":"0.00019760","LAUNCH_DATE":"2019-11-11","PERIAPSIS":"331.434","SEMIMAJOR_AXIS":"6710.895","MEAN_ELEMENT_THEORY":"SGP4","APOAPSIS":"334.087","TIME_SYSTEM":"UTC","MEAN_MOTION_DDOT":"0.0000000000000","ELEMENT_SET_NO":"999","OBJECT_NAME":"STARLINK-1022","PERIOD":"91.186","TLE_LINE1":"1 44727U 19074Q   23169.73890623  .00029729  00000-0  16587-3 0  9993","BSTAR":"0.00016587000000","DECAY_DATE":null,"CLASSIFICATION_TYPE":"U","REV_AT_EPOCH":"19870","NORAD_CAT_ID":"44727","EPOCH":"2023-06-18T17:44:01.498272","GP_ID":"234241358","SITE":"AFETR","REF_FRAME":"TEME","CENTER_NAME":"EARTH","MEAN_ANOMALY":"52.0053","OBJECT_TYPE":"PAYLOAD","RA_OF_ASC_NODE":"339.8963","COUNTRY_CODE":"US","INCLINATION":"53.0524","ARG_OF_PERICENTER":"308.0789","TLE_LINE2":"2 44727  53.0524 339.8963 0001976 308.0789  52.0053 15.79181525198708","MEAN_MOTION":"15.79181525","MEAN_MOTION_DOT":"0.00029729","OBJECT_ID":"2019-074Q","EPHEMERIS_TYPE":"0","RCS_SIZE":"LARGE","FILE":"3936745"},{"REV_AT_EPOCH":"19930","DECAY_DATE":null,"CLASSIFICATION_TYPE":"U","TLE_LINE1":"1 44729U 19074S   23169.60194531  .00030941  00000-0  59574-3 0  9997","BSTAR":"0.00059574000000","PERIOD":"93.046","SITE":"AFETR","NORAD_CAT_ID":"44729","GP_ID":"234240615","EPOCH":"2023-06-18T14:26:48.074784","ARG_OF_PERICENTER":"157.6948","TLE_LINE2":"2 44729  53.0205 291.9500 0006617 157.6948 202.4347 15.47621092199300","INCLINATION":"53.0205","MEAN_ANOMALY":"202.4347","OBJECT_TYPE":"PAYLOAD","RA_OF_ASC_NODE":"291.9500","COUNTRY_CODE":"US","REF_FRAME":"TEME","CENTER_NAME":"EARTH","RCS_SIZE":"LARGE","FILE":"3936745","OBJECT_ID":"2019-074S","EPHEMERIS_TYPE":"0","MEAN_MOTION_DOT":"0.00030941","MEAN_MOTION":"15.47621092","ECCENTRICITY":"0.00066170","LAUNCH_DATE":"2019-11-11","PERIAPSIS":"419.189","MEAN_ELEMENT_THEORY":"SGP4","SEMIMAJOR_AXIS":"6801.824","APOAPSIS":"428.190","TIME_SYSTEM":"UTC","OBJECT_NAME":"STARLINK-1024","ELEMENT_SET_NO":"999","MEAN_MOTION_DDOT":"0.0000000000000"},{"REV_AT_EPOCH":"19896","DECAY_DATE":null,"CLASSIFICATION_TYPE":"U","BSTAR":"0.00095387000000","TLE_LINE1":"1 44731U 19074U   23169.81464177  .00013942  00000-0  95387-3 0  9993","PERIOD":"95.594","SITE":"AFETR","EPOCH":"2023-06-18T19:33:05.048928","GP_ID":"234217617","NORAD_CAT_ID":"44731","TLE_LINE2":"2 44731  53.0555 332.7827 0000699  70.1141 289.9923 15.06365473198969","ARG_OF_PERICENTER":"70.1141","INCLINATION":"53.0555","COUNTRY_CODE":"US","MEAN_ANOMALY":"289.9923","OBJECT_TYPE":"PAYLOAD","RA_OF_ASC_NODE":"332.7827","CENTER_NAME":"EARTH","REF_FRAME":"TEME","FILE":"3936503","RCS_SIZE":"LARGE","OBJECT_ID":"2019-074U","EPHEMERIS_TYPE":"0","MEAN_MOTION_DOT":"0.00013942","MEAN_MOTION":"15.06365473","PERIAPSIS":"546.835","LAUNCH_DATE":"2019-11-11","ECCENTRICITY":"0.00006990","MEAN_ELEMENT_THEORY":"SGP4","SEMIMAJOR_AXIS":"6925.454","TIME_SYSTEM":"UTC","APOAPSIS":"547.803","OBJECT_NAME":"STARLINK-1026","ELEMENT_SET_NO":"999","MEAN_MOTION_DDOT":"0.0000000000000"},{"APOAPSIS":"548.059","TIME_SYSTEM":"UTC","ELEMENT_SET_NO":"999","MEAN_MOTION_DDOT":"0.0000000000000","OBJECT_NAME":"STARLINK-1027","ECCENTRICITY":"0.00011840","PERIAPSIS":"546.419","LAUNCH_DATE":"2019-11-11","SEMIMAJOR_AXIS":"6925.374","MEAN_ELEMENT_THEORY":"SGP4","REF_FRAME":"TEME","CENTER_NAME":"EARTH","OBJECT_TYPE":"PAYLOAD","RA_OF_ASC_NODE":"352.8411","MEAN_ANOMALY":"270.8832","COUNTRY_CODE":"US","INCLINATION":"53.0551","ARG_OF_PERICENTER":"89.2293","TLE_LINE2":"2 44732  53.0551 352.8411 0001184  89.2293 270.8832 15.06391594198687","MEAN_MOTION":"15.06391594","MEAN_MOTION_DOT":"-0.00000359","OBJECT_ID":"2019-074V","EPHEMERIS_TYPE":"0","RCS_SIZE":"LARGE","FILE":"3936549","PERIOD":"95.593","TLE_LINE1":"1 44732U 19074V   23169.80175637 -.00000359  00000-0 -51937-5 0  9998","BSTAR":"-0.00000519370000","DECAY_DATE":null,"CLASSIFICATION_TYPE":"U","REV_AT_EPOCH":"19868","NORAD_CAT_ID":"44732","GP_ID":"234218715","EPOCH":"2023-06-18T19:14:31.750368","SITE":"AFETR"},{"ELEMENT_SET_NO":"999","MEAN_MOTION_DDOT":"0.0000000000000","OBJECT_NAME":"STARLINK-1028","APOAPSIS":"548.207","TIME_SYSTEM":"UTC","SEMIMAJOR_AXIS":"6925.455","MEAN_ELEMENT_THEORY":"SGP4","ECCENTRICITY":"0.00012810","LAUNCH_DATE":"2019-11-11","PERIAPSIS":"546.433","OBJECT_ID":"2019-074W","EPHEMERIS_TYPE":"0","RCS_SIZE":"LARGE","FILE":"3936745","MEAN_MOTION":"15.06365201","MEAN_MOTION_DOT":"0.00018604","INCLINATION":"53.0549","ARG_OF_PERICENTER":"85.6843","TLE_LINE2":"2 44733  53.0549 333.1508 0001281  85.6843 274.4292 15.06365201198780","REF_FRAME":"TEME","CENTER_NAME":"EARTH","RA_OF_ASC_NODE":"333.1508","OBJECT_TYPE":"PAYLOAD","MEAN_ANOMALY":"274.4292","COUNTRY_CODE":"US","SITE":"AFETR","NORAD_CAT_ID":"44733","EPOCH":"2023-06-18T17:36:18.859968","GP_ID":"234241858","CLASSIFICATION_TYPE":"U","DECAY_DATE":null,"REV_AT_EPOCH":"19878","PERIOD":"95.594","TLE_LINE1":"1 44733U 19074W   23169.73355162  .00018604  00000-0  12657-2 0  9997","BSTAR":"0.00126570000000"},{"APOAPSIS":"548.007","TIME_SYSTEM":"UTC","MEAN_MOTION_DDOT":"0.0000000000000","ELEMENT_SET_NO":"999","OBJECT_NAME":"STARLINK-1029","ECCENTRICITY":"0.00009990","PERIAPSIS":"546.623","LAUNCH_DATE":"2019-11-11","SEMIMAJOR_AXIS":"6925.450","MEAN_ELEMENT_THEORY":"SGP4","INCLINATION":"53.0532","ARG_OF_PERICENTER":"85.0976","TLE_LINE2":"2 44734  53.0532 253.6823 0000999  85.0976 275.0127 15.06366887199860","REF_FRAME":"TEME","CENTER_NAME":"EARTH","OBJECT_TYPE":"PAYLOAD","RA_OF_ASC_NODE":"253.6823","MEAN_ANOMALY":"275.0127","COUNTRY_CODE":"US","EPHEMERIS_TYPE":"0","OBJECT_ID":"2019-074X","RCS_SIZE":"LARGE","FILE":"3936745","MEAN_MOTION":"15.06366887","MEAN_MOTION_DOT":"-0.00004564","CLASSIFICATION_TYPE":"U","DECAY_DATE":null,"REV_AT_EPOCH":"19986","PERIOD":"95.594","TLE_LINE1":"1 44734U 19074X   23169.61559631 -.00004564  00000-0 -28799-3 0  9999","BSTAR":"-0.00028799000000","SITE":"AFETR","NORAD_CAT_ID":"44734","GP_ID":"234240116","EPOCH":"2023-06-18T14:46:27.521184"},{"PERIAPSIS":"546.593","LAUNCH_DATE":"2019-11-11","ECCENTRICITY":"0.00009400","SEMIMAJOR_AXIS":"6925.379","MEAN_ELEMENT_THEORY":"SGP4","TIME_SYSTEM":"UTC","APOAPSIS":"547.895","MEAN_MOTION_DDOT":"0.0000000000000","ELEMENT_SET_NO":"999","OBJECT_NAME":"STARLINK-1030","DECAY_DATE":null,"CLASSIFICATION_TYPE":"U","REV_AT_EPOCH":"19868","PERIOD":"95.593","BSTAR":"-0.00004569700000","TLE_LINE1":"1 44735U 19074Y   23169.80912753 -.00000962  00000-0 -45697-4 0  9994","SITE":"AFETR","GP_ID":"234218710","EPOCH":"2023-06-18T19:25:08.618592","NORAD_CAT_ID":"44735","INCLINATION":"53.0550","TLE_LINE2":"2 44735  53.0550 352.8121 0000940  90.5075 269.6021 15.06390047198687","ARG_OF_PERICENTER":"90.5075","CENTER_NAME":"EARTH","REF_FRAME":"TEME","COUNTRY_CODE":"US","MEAN_ANOMALY":"269.6021","OBJECT_TYPE":"PAYLOAD","RA_OF_ASC_NODE":"352.8121","OBJECT_ID":"2019-074Y","EPHEMERIS_TYPE":"0","FILE":"3936549","RCS_SIZE":"LARGE","MEAN_MOTION":"15.06390047","MEAN_MOTION_DOT":"-0.00000962"}];
